{"type":"FeatureCollection","features":[{"type":"Feature","properties":{"layer":"road","name":"河南南路","osm_id":10629715,"id":10629715,"basis":"OSM current centerline; width is design value"},"geometry":{"type":"LineString","coordinates":[[121.4853087,31.22417625],[121.48508978,31.22459899],[121.48487715,31.22501833],[121.48461914,31.22550593],[121.4841731,31.2263366]]}},{"type":"Feature","properties":{"layer":"road","name":"丽水路","osm_id":15417580,"id":15417580,"basis":"OSM current centerline; width is design value"},"geometry":{"type":"LineString","coordinates":[[121.48622528,31.23136274],[121.48610205,31.23119637],[121.48609921,31.2308931],[121.48609764,31.23073832],[121.48609102,31.2305928],[121.48606612,31.23018299],[121.48606129,31.22986669]]}},{"type":"Feature","properties":{"layer":"road","name":"人民路","osm_id":15419971,"id":15419971,"basis":"OSM current centerline; width is design value"},"geometry":{"type":"LineString","coordinates":[[121.48261781,31.23096838],[121.48242735,31.23092499],[121.4823868,31.23091574],[121.48202753,31.23078333],[121.48178612,31.23067436],[121.48158494,31.23059181],[121.48115045,31.23043586],[121.48074275,31.23028216],[121.48059588,31.23022206]]}},{"type":"Feature","properties":{"layer":"road","name":"旧校场路","osm_id":33683251,"id":33683251,"basis":"OSM current centerline; width is design value"},"geometry":{"type":"LineString","coordinates":[[121.48606129,31.22986669],[121.48616718,31.22922539],[121.48619891,31.22904456],[121.48623526,31.22888834],[121.48637949,31.2282323],[121.48650902,31.22766754],[121.48661859,31.22722431],[121.48663855,31.227144]]}},{"type":"Feature","properties":{"layer":"road","name":"人民路","osm_id":33683439,"id":33683439,"basis":"OSM current centerline; width is design value"},"geometry":{"type":"LineString","coordinates":[[121.49281725,31.22730776],[121.49277712,31.2274055],[121.49271462,31.22753548],[121.49270506,31.2275583],[121.4926435,31.22770643],[121.49254927,31.22802443],[121.492419,31.2283966],[121.4922609,31.2288587],[121.49213768,31.22917131],[121.49193545,31.22942319],[121.49168217,31.229644],[121.49140337,31.22980974],[121.49113937,31.23000126],[121.49093232,31.23022278],[121.49081644,31.23043092],[121.49070877,31.2307049],[121.49068566,31.23074856],[121.49066349,31.23077677],[121.49056033,31.23093909],[121.49046316,31.23103836],[121.49038216,31.23108983],[121.49032617,31.23111687]]}},{"type":"Feature","properties":{"layer":"road","name":"福佑路","osm_id":39697220,"id":39697220,"basis":"OSM current centerline; width is design value"},"geometry":{"type":"LineString","coordinates":[[121.48156425,31.22952749],[121.48227555,31.22962603],[121.48288306,31.22970401]]}},{"type":"Feature","properties":{"layer":"road","name":"昼锦路","osm_id":39697464,"id":39697464,"basis":"OSM current centerline; width is design value"},"geometry":{"type":"LineString","coordinates":[[121.4897382,31.22663529],[121.48888224,31.2266537],[121.48871678,31.22665729],[121.48864377,31.22664238],[121.48845153,31.22660304],[121.4883261,31.22657734],[121.48782216,31.22647593],[121.48739439,31.22638412],[121.48701327,31.2262906],[121.48681031,31.22623212],[121.48557795,31.22581773],[121.48461914,31.22550593],[121.48449088,31.2254841]]}},{"type":"Feature","properties":{"layer":"road","name":"光启路","osm_id":39697507,"id":39697507,"basis":"OSM current centerline; width is design value"},"geometry":{"type":"LineString","coordinates":[[121.48968966,31.2276943],[121.48970416,31.22760007],[121.48970794,31.22757824],[121.48974681,31.2273472],[121.48974082,31.2270044],[121.48974051,31.22682573],[121.48973872,31.22667436],[121.4897382,31.22663529],[121.48972853,31.22650952],[121.48972223,31.22642787],[121.48967369,31.22579878],[121.48966939,31.22574344],[121.48966098,31.22563349],[121.48965321,31.22553243],[121.48962674,31.22518936],[121.48962758,31.2251087],[121.48962947,31.22494493],[121.48963209,31.22472467],[121.4896343,31.22454123],[121.48963525,31.22446281],[121.4896571,31.22417625]]}},{"type":"Feature","properties":{"layer":"road","name":"安仁街","osm_id":39705649,"id":39705649,"basis":"OSM current centerline; width is design value"},"geometry":{"type":"LineString","coordinates":[[121.48801336,31.23136274],[121.48802449,31.2310892]]}},{"type":"Feature","properties":{"layer":"road","name":"河南南路","osm_id":40036882,"id":40036882,"basis":"OSM current centerline; width is design value"},"geometry":{"type":"LineString","coordinates":[[121.48288306,31.22970401],[121.48295587,31.22929743],[121.48310115,31.22861651],[121.48311502,31.22855498]]}},{"type":"Feature","properties":{"layer":"road","name":"东门路","osm_id":40040114,"id":40040114,"basis":"OSM current centerline; width is design value"},"geometry":{"type":"LineString","coordinates":[[121.49542411,31.22747449],[121.49510559,31.22739418],[121.49412966,31.22714831],[121.49320059,31.22700782],[121.49303807,31.22695697]]}},{"type":"Feature","properties":{"layer":"road","name":"中山东二路","osm_id":40301235,"id":40301235,"basis":"OSM current centerline; width is design value"},"geometry":{"type":"LineString","coordinates":[[121.49430898,31.22908184],[121.49402682,31.22932878],[121.49300855,31.23019134],[121.49209051,31.23095904],[121.49160811,31.23136274]]}},{"type":"Feature","properties":{"layer":"road","name":"人民路","osm_id":49224804,"id":49224804,"basis":"OSM current centerline; width is design value"},"geometry":{"type":"LineString","coordinates":[[121.48059588,31.22995796],[121.48063675,31.22997817],[121.48084192,31.2300689],[121.48155994,31.23033498],[121.48179526,31.23042427],[121.48247137,31.23067328],[121.48258251,31.23071173],[121.48266834,31.23074138]]}},{"type":"Feature","properties":{"layer":"road","name":"九曲桥","osm_id":62072384,"id":62072384,"basis":"OSM current centerline; width is design value"},"geometry":{"type":"LineString","coordinates":[[121.48715151,31.22848796],[121.48721528,31.22849757],[121.48720446,31.22854572],[121.48725594,31.22855399],[121.48724449,31.22860483],[121.48729481,31.2286131],[121.4872844,31.22865918],[121.48732695,31.22866619],[121.48731918,31.22870059],[121.48741425,31.22871613],[121.48750564,31.22873096],[121.48749556,31.2287756],[121.48754189,31.22878306],[121.48753285,31.22882339],[121.48758118,31.22883139],[121.48757151,31.22887496],[121.48761353,31.22888187],[121.487592,31.22897808]]}},{"type":"Feature","properties":{"layer":"road","name":"","osm_id":62072389,"id":62072389,"basis":"OSM current centerline; width is design value"},"geometry":{"type":"LineString","coordinates":[[121.48813858,31.22983193],[121.48837915,31.22999596],[121.48843745,31.23004707],[121.48859534,31.23018514]]}},{"type":"Feature","properties":{"layer":"road","name":"人民路","osm_id":71310752,"id":71310752,"basis":"OSM current centerline; width is design value"},"geometry":{"type":"LineString","coordinates":[[121.48476254,31.23136274],[121.48426712,31.23127991],[121.48330306,31.2310998],[121.48275931,31.2309982]]}},{"type":"Feature","properties":{"layer":"road","name":"","osm_id":116884264,"id":116884264,"basis":"OSM current centerline; width is design value"},"geometry":{"type":"LineString","coordinates":[[121.48698553,31.22774281],[121.48658077,31.22767921],[121.48650902,31.22766754]]}},{"type":"Feature","properties":{"layer":"road","name":"","osm_id":116884297,"id":116884297,"basis":"OSM current centerline; width is design value"},"geometry":{"type":"LineString","coordinates":[[121.48688836,31.22902318],[121.48689908,31.22880489],[121.48690065,31.22877129],[121.48697692,31.22878162],[121.48700549,31.22866313],[121.48705455,31.22859711],[121.48709678,31.22850323]]}},{"type":"Feature","properties":{"layer":"road","name":"","osm_id":116884306,"id":116884306,"basis":"OSM current centerline; width is design value"},"geometry":{"type":"LineString","coordinates":[[121.48801998,31.22842427],[121.48747644,31.22833372]]}},{"type":"Feature","properties":{"layer":"road","name":"","osm_id":116884314,"id":116884314,"basis":"OSM current centerline; width is design value"},"geometry":{"type":"LineString","coordinates":[[121.48664538,31.22927479],[121.48625952,31.22923527],[121.48616718,31.22922539]]}},{"type":"Feature","properties":{"layer":"road","name":"","osm_id":116884331,"id":116884331,"basis":"OSM current centerline; width is design value"},"geometry":{"type":"LineString","coordinates":[[121.48661869,31.22982672],[121.48662206,31.22974308],[121.48664538,31.22927479]]}},{"type":"Feature","properties":{"layer":"road","name":"","osm_id":162660305,"id":162660305,"basis":"OSM current centerline; width is design value"},"geometry":{"type":"LineString","coordinates":[[121.48859534,31.23018514],[121.48852853,31.23025997],[121.48842684,31.23027982],[121.48832504,31.23030354],[121.48826947,31.23029168],[121.48826947,31.23023626],[121.48837589,31.23009792],[121.48843745,31.23004707],[121.48854471,31.22996344],[121.48863589,31.22992796],[121.48875796,31.22991852],[121.48885219,31.22999308],[121.48892394,31.23003458],[121.48886375,31.23007016],[121.48875744,31.23012954],[121.48859534,31.23018514]]}},{"type":"Feature","properties":{"layer":"road","name":"积玉水廊","osm_id":165791698,"id":165791698,"basis":"OSM current centerline; width is design value"},"geometry":{"type":"LineString","coordinates":[[121.48815423,31.22856854],[121.48815055,31.22859208],[121.48815938,31.22861256],[121.48817524,31.22863717],[121.48818722,31.22865873],[121.48819373,31.22867679],[121.48819457,31.22869287],[121.48819489,31.22872098],[121.48819142,31.22874362],[121.48818154,31.22876904],[121.48817545,31.22879213],[121.48817724,31.2288198],[121.48818154,31.2288419],[121.48818396,31.22886624],[121.488166,31.22888349],[121.48812786,31.22888484]]}},{"type":"Feature","properties":{"layer":"road","name":"中山东二路","osm_id":177925124,"id":177925124,"basis":"OSM current centerline; width is design value"},"geometry":{"type":"LineString","coordinates":[[121.4912875,31.23136274],[121.49246649,31.23032734],[121.49282807,31.23001752],[121.49354085,31.2294161],[121.49390065,31.22909702],[121.49411306,31.22890361]]}},{"type":"Feature","properties":{"layer":"road","name":"","osm_id":227316843,"id":227316843,"basis":"OSM current centerline; width is design value"},"geometry":{"type":"LineString","coordinates":[[121.4881453,31.22819871],[121.48825004,31.22821667],[121.48826002,31.22817301],[121.48827504,31.22810699],[121.48816978,31.22809271],[121.4881453,31.22819871],[121.48812009,31.22828297],[121.48810675,31.22832761],[121.48807555,31.2283313],[121.48806074,31.22837271],[121.48803531,31.22842858],[121.48801998,31.22842427]]}},{"type":"Feature","properties":{"layer":"road","name":"","osm_id":238219435,"id":238219435,"basis":"OSM current centerline; width is design value"},"geometry":{"type":"LineString","coordinates":[[121.48606129,31.22986669],[121.48661869,31.22982672],[121.48695433,31.22982842],[121.48749335,31.22982779],[121.48813858,31.22983193]]}},{"type":"Feature","properties":{"layer":"road","name":"","osm_id":306785706,"id":306785706,"basis":"OSM current centerline; width is design value"},"geometry":{"type":"LineString","coordinates":[[121.48859534,31.23018514],[121.48880124,31.23036453],[121.48906555,31.23054932],[121.48948891,31.23086382],[121.48954217,31.23089678],[121.48954963,31.23090424]]}},{"type":"Feature","properties":{"layer":"road","name":"","osm_id":341360157,"id":341360157,"basis":"OSM current centerline; width is design value"},"geometry":{"type":"LineString","coordinates":[[121.48803531,31.22842858],[121.48805023,31.22844987]]}},{"type":"Feature","properties":{"layer":"road","name":"","osm_id":341360159,"id":341360159,"basis":"OSM current centerline; width is design value"},"geometry":{"type":"LineString","coordinates":[[121.48741425,31.22871613],[121.48741919,31.22869377]]}},{"type":"Feature","properties":{"layer":"road","name":"","osm_id":364030148,"id":364030148,"basis":"OSM current centerline; width is design value"},"geometry":{"type":"LineString","coordinates":[[121.48697692,31.22878162],[121.48707063,31.22879563],[121.4870867,31.22887567],[121.48716486,31.22890658],[121.48722253,31.22888573]]}},{"type":"Feature","properties":{"layer":"road","name":"","osm_id":364030663,"id":364030663,"basis":"OSM current centerline; width is design value"},"geometry":{"type":"LineString","coordinates":[[121.48805023,31.22844987],[121.48809624,31.22848006],[121.48812135,31.22848329],[121.48817409,31.22848976],[121.48827052,31.22849829],[121.48828754,31.22850934],[121.48831969,31.22852902],[121.48836717,31.22862334],[121.48833292,31.22880947],[121.48828386,31.22880354],[121.48824163,31.22879788],[121.48822798,31.22880848],[121.48818154,31.2288419]]}},{"type":"Feature","properties":{"layer":"road","name":"","osm_id":364030665,"id":364030665,"basis":"OSM current centerline; width is design value"},"geometry":{"type":"LineString","coordinates":[[121.4877834,31.22913097],[121.48779485,31.22910384],[121.48781933,31.22902291]]}},{"type":"Feature","properties":{"layer":"road","name":"粮厅路","osm_id":425933778,"id":425933778,"basis":"OSM current centerline; width is design value"},"geometry":{"type":"LineString","coordinates":[[121.48664538,31.22927479],[121.4866562,31.22921209],[121.48675684,31.22912199],[121.48667353,31.22897557],[121.48667584,31.22895823],[121.48670715,31.22874156]]}},{"type":"Feature","properties":{"layer":"road","name":"","osm_id":425933779,"id":425933779,"basis":"OSM current centerline; width is design value"},"geometry":{"type":"LineString","coordinates":[[121.48670715,31.22874156],[121.48676829,31.22875009],[121.4868331,31.22844089],[121.48685821,31.22830731]]}},{"type":"Feature","properties":{"layer":"road","name":"","osm_id":428179933,"id":428179933,"basis":"OSM current centerline; width is design value"},"geometry":{"type":"LineString","coordinates":[[121.48738095,31.22891376],[121.48737023,31.22893927],[121.48732895,31.22902839],[121.48731666,31.22906701]]}},{"type":"Feature","properties":{"layer":"road","name":"","osm_id":428179934,"id":428179934,"basis":"OSM current centerline; width is design value"},"geometry":{"type":"LineString","coordinates":[[121.48732895,31.22902839],[121.48742601,31.2290574],[121.48744104,31.2290618],[121.48747455,31.22908444],[121.48748253,31.22911202],[121.48747665,31.22916277],[121.48747024,31.22918263],[121.48745606,31.22922593],[121.48743106,31.22924623],[121.48740469,31.22924398],[121.48739019,31.22921748],[121.4873882,31.22919664],[121.48740343,31.22915262]]}},{"type":"Feature","properties":{"layer":"road","name":"","osm_id":428179935,"id":428179935,"basis":"OSM current centerline; width is design value"},"geometry":{"type":"LineString","coordinates":[[121.48747024,31.22918263],[121.48745207,31.22916807],[121.48743169,31.2291608],[121.48740343,31.22915262],[121.48740994,31.22913259],[121.48741908,31.2291078],[121.48742643,31.22908408],[121.48742601,31.2290574]]}},{"type":"Feature","properties":{"layer":"road","name":"","osm_id":428179936,"id":428179936,"basis":"OSM current centerline; width is design value"},"geometry":{"type":"LineString","coordinates":[[121.48743106,31.22924623],[121.48741971,31.22928018],[121.48740711,31.22930758]]}},{"type":"Feature","properties":{"layer":"road","name":"","osm_id":428179937,"id":428179937,"basis":"OSM current centerline; width is design value"},"geometry":{"type":"LineString","coordinates":[[121.48738998,31.22940163],[121.48738084,31.22944404],[121.48743326,31.2294523],[121.4874236,31.22949641],[121.48745763,31.22950467]]}},{"type":"Feature","properties":{"layer":"road","name":"","osm_id":428179938,"id":428179938,"basis":"OSM current centerline; width is design value"},"geometry":{"type":"LineString","coordinates":[[121.48740711,31.22930758],[121.48738998,31.22940163]]}},{"type":"Feature","properties":{"layer":"road","name":"","osm_id":428179939,"id":428179939,"basis":"OSM current centerline; width is design value"},"geometry":{"type":"LineString","coordinates":[[121.48745763,31.22950467],[121.48753642,31.22951877]]}},{"type":"Feature","properties":{"layer":"road","name":"","osm_id":428179941,"id":428179941,"basis":"OSM current centerline; width is design value"},"geometry":{"type":"LineString","coordinates":[[121.48753642,31.22951877],[121.48755953,31.22952129],[121.48761217,31.22952713],[121.48762824,31.22954761],[121.4876628,31.22954977],[121.48767688,31.22957618],[121.48777951,31.22957618],[121.4878334,31.22954429],[121.48785273,31.22953342],[121.4878937,31.2295345],[121.48788856,31.22950701],[121.48792186,31.22950162],[121.48793215,31.22945437],[121.48792995,31.22944107],[121.48795495,31.22936094],[121.48798037,31.22931288],[121.48799865,31.22928953],[121.48802796,31.22918236],[121.4879726,31.22916897],[121.48801514,31.2290309]]}},{"type":"Feature","properties":{"layer":"road","name":"","osm_id":428179942,"id":428179942,"basis":"OSM current centerline; width is design value"},"geometry":{"type":"LineString","coordinates":[[121.4874236,31.22949641],[121.48738757,31.22952309],[121.48734166,31.22956109],[121.48732159,31.22960771],[121.48731025,31.22963223],[121.4875338,31.22964571],[121.48752949,31.22972781],[121.48759095,31.22973194],[121.4876399,31.22973518],[121.48765986,31.22974129],[121.48769579,31.22975234],[121.48778088,31.22974632],[121.48781922,31.22974497]]}},{"type":"Feature","properties":{"layer":"road","name":"","osm_id":428179944,"id":428179944,"basis":"OSM current centerline; width is design value"},"geometry":{"type":"LineString","coordinates":[[121.48765986,31.22974129],[121.48767509,31.22973123],[121.48769379,31.22971766],[121.48771879,31.22971263],[121.48775325,31.22972152],[121.48778088,31.22974632]]}},{"type":"Feature","properties":{"layer":"road","name":"","osm_id":428179945,"id":428179945,"basis":"OSM current centerline; width is design value"},"geometry":{"type":"LineString","coordinates":[[121.4875338,31.22964571],[121.48754525,31.22961256],[121.48755649,31.22954087],[121.48755953,31.22952129]]}},{"type":"Feature","properties":{"layer":"road","name":"","osm_id":428186440,"id":428186440,"basis":"OSM current centerline; width is design value"},"geometry":{"type":"LineString","coordinates":[[121.4878937,31.2295345],[121.487875,31.22958184],[121.48788267,31.22963178],[121.4878541,31.22964508],[121.48784265,31.22964589],[121.48784738,31.22960771],[121.48768413,31.22959944],[121.48767593,31.22968999],[121.48765986,31.22974129]]}},{"type":"Feature","properties":{"layer":"road","name":"","osm_id":428186441,"id":428186441,"basis":"OSM current centerline; width is design value"},"geometry":{"type":"LineString","coordinates":[[121.48767593,31.22968999],[121.48783656,31.2296996],[121.48784265,31.22964589]]}},{"type":"Feature","properties":{"layer":"road","name":"","osm_id":428186442,"id":428186442,"basis":"OSM current centerline; width is design value"},"geometry":{"type":"LineString","coordinates":[[121.48755649,31.22954087],[121.48760135,31.22954447],[121.48761385,31.22956001],[121.48764725,31.2295636],[121.48766606,31.22959819],[121.48768413,31.22959944]]}},{"type":"Feature","properties":{"layer":"road","name":"","osm_id":428186443,"id":428186443,"basis":"OSM current centerline; width is design value"},"geometry":{"type":"LineString","coordinates":[[121.48788267,31.22963178],[121.48790274,31.22963493],[121.48791377,31.22963654],[121.48810128,31.2296634],[121.48812145,31.22967409],[121.48813606,31.22968604]]}},{"type":"Feature","properties":{"layer":"road","name":"","osm_id":428186444,"id":428186444,"basis":"OSM current centerline; width is design value"},"geometry":{"type":"LineString","coordinates":[[121.48792837,31.2297403],[121.48790536,31.22973194],[121.48789276,31.22971173],[121.48790274,31.22963493],[121.48792186,31.22950162]]}},{"type":"Feature","properties":{"layer":"road","name":"","osm_id":428186445,"id":428186445,"basis":"OSM current centerline; width is design value"},"geometry":{"type":"LineString","coordinates":[[121.48792995,31.22944107],[121.48789286,31.22943227],[121.48785904,31.22940253],[121.48783529,31.22941394],[121.48779422,31.22940774],[121.48775209,31.22940253],[121.48771512,31.22939544],[121.48769348,31.22938313],[121.48769453,31.22936202],[121.48767625,31.2293587],[121.487667,31.22935699]]}},{"type":"Feature","properties":{"layer":"road","name":"","osm_id":428186446,"id":428186446,"basis":"OSM current centerline; width is design value"},"geometry":{"type":"LineString","coordinates":[[121.48785904,31.22940253],[121.48785788,31.22936121]]}},{"type":"Feature","properties":{"layer":"road","name":"","osm_id":428186447,"id":428186447,"basis":"OSM current centerline; width is design value"},"geometry":{"type":"LineString","coordinates":[[121.48785788,31.22936121],[121.48788057,31.22929959]]}},{"type":"Feature","properties":{"layer":"road","name":"","osm_id":428186448,"id":428186448,"basis":"OSM current centerline; width is design value"},"geometry":{"type":"LineString","coordinates":[[121.48788057,31.22929959],[121.48784055,31.22929519],[121.48778392,31.22927937],[121.487748,31.22926186],[121.4877377,31.22924344],[121.4877459,31.22919862],[121.48776344,31.2291546],[121.4877834,31.22913097],[121.48783845,31.22912738],[121.48787847,31.22913708],[121.48790316,31.22914589],[121.48789003,31.22918883],[121.48792133,31.22919646],[121.48791335,31.22921973]]}},{"type":"Feature","properties":{"layer":"road","name":"","osm_id":428186449,"id":428186449,"basis":"OSM current centerline; width is design value"},"geometry":{"type":"LineString","coordinates":[[121.48812786,31.22888484],[121.48806977,31.22887792],[121.48803815,31.22899434],[121.48799939,31.22898599],[121.48792375,31.22922233],[121.48791335,31.22921973],[121.48790715,31.22921811]]}},{"type":"Feature","properties":{"layer":"road","name":"","osm_id":428186450,"id":428186450,"basis":"OSM current centerline; width is design value"},"geometry":{"type":"LineString","coordinates":[[121.48788057,31.22929959],[121.48790841,31.22929051],[121.48792669,31.22926114],[121.48794822,31.22923167],[121.48794928,31.22921703],[121.48792995,31.2291564],[121.48793551,31.22912738],[121.48794066,31.22910043],[121.48795778,31.22906423],[121.48800296,31.22903063],[121.48801514,31.2290309],[121.48803405,31.22903153],[121.4880932,31.2290433],[121.48815717,31.22905623],[121.48814803,31.22911049],[121.48816106,31.22911328],[121.48815003,31.22916286],[121.48823544,31.22918128],[121.48825266,31.22918487],[121.48833292,31.22880947]]}},{"type":"Feature","properties":{"layer":"road","name":"","osm_id":428186451,"id":428186451,"basis":"OSM current centerline; width is design value"},"geometry":{"type":"LineString","coordinates":[[121.48790316,31.22914589],[121.48793551,31.22912738]]}},{"type":"Feature","properties":{"layer":"road","name":"","osm_id":428186452,"id":428186452,"basis":"OSM current centerline; width is design value"},"geometry":{"type":"LineString","coordinates":[[121.4880932,31.2290433],[121.48813553,31.22902812],[121.48816904,31.22897188]]}},{"type":"Feature","properties":{"layer":"road","name":"","osm_id":428186453,"id":428186453,"basis":"OSM current centerline; width is design value"},"geometry":{"type":"LineString","coordinates":[[121.48783845,31.22912738],[121.48779485,31.22910384],[121.48774453,31.22907752]]}},{"type":"Feature","properties":{"layer":"road","name":"","osm_id":428186454,"id":428186454,"basis":"OSM current centerline; width is design value"},"geometry":{"type":"LineString","coordinates":[[121.48781933,31.22902291],[121.48783666,31.22898221],[121.48786429,31.22892454]]}},{"type":"Feature","properties":{"layer":"road","name":"","osm_id":428186455,"id":428186455,"basis":"OSM current centerline; width is design value"},"geometry":{"type":"LineString","coordinates":[[121.48786429,31.22892454],[121.48791177,31.22879644],[121.48793152,31.22864103],[121.48794203,31.2286201]]}},{"type":"Feature","properties":{"layer":"road","name":"","osm_id":428186456,"id":428186456,"basis":"OSM current centerline; width is design value"},"geometry":{"type":"LineString","coordinates":[[121.48774453,31.22907752],[121.48767173,31.2290433]]}},{"type":"Feature","properties":{"layer":"road","name":"","osm_id":428186457,"id":428186457,"basis":"OSM current centerline; width is design value"},"geometry":{"type":"LineString","coordinates":[[121.48767173,31.2290433],[121.4876253,31.22905111],[121.48758065,31.22907133],[121.48755617,31.22909854],[121.48753075,31.22913897],[121.48752245,31.2291802],[121.48749608,31.22925413],[121.48748337,31.22930848]]}},{"type":"Feature","properties":{"layer":"road","name":"","osm_id":428186458,"id":428186458,"basis":"OSM current centerline; width is design value"},"geometry":{"type":"LineString","coordinates":[[121.4876253,31.22905111],[121.48765387,31.22901797],[121.48765072,31.22900162],[121.48762939,31.2289876]]}},{"type":"Feature","properties":{"layer":"road","name":"","osm_id":428186459,"id":428186459,"basis":"OSM current centerline; width is design value"},"geometry":{"type":"LineString","coordinates":[[121.48744104,31.2290618],[121.48747402,31.22906378],[121.48751478,31.2290574],[121.48754714,31.22905929],[121.48758065,31.22907133]]}},{"type":"Feature","properties":{"layer":"road","name":"","osm_id":428186460,"id":428186460,"basis":"OSM current centerline; width is design value"},"geometry":{"type":"LineString","coordinates":[[121.4880454,31.22862999],[121.48805233,31.22861498]]}},{"type":"Feature","properties":{"layer":"road","name":"环龙桥","osm_id":428186461,"id":428186461,"basis":"OSM current centerline; width is design value"},"geometry":{"type":"LineString","coordinates":[[121.48805233,31.22861498],[121.48807145,31.22855902]]}},{"type":"Feature","properties":{"layer":"road","name":"","osm_id":428186462,"id":428186462,"basis":"OSM current centerline; width is design value"},"geometry":{"type":"LineString","coordinates":[[121.48807145,31.22855902],[121.48809845,31.22853198],[121.48811694,31.22850332],[121.48812135,31.22848329]]}},{"type":"Feature","properties":{"layer":"road","name":"","osm_id":428186463,"id":428186463,"basis":"OSM current centerline; width is design value"},"geometry":{"type":"LineString","coordinates":[[121.48794203,31.2286201],[121.48799298,31.22861759]]}},{"type":"Feature","properties":{"layer":"road","name":"","osm_id":428186464,"id":428186464,"basis":"OSM current centerline; width is design value"},"geometry":{"type":"LineString","coordinates":[[121.48799298,31.22861759],[121.48803153,31.22862487],[121.4880454,31.22862999],[121.48807996,31.22864274],[121.48811704,31.22866574]]}},{"type":"Feature","properties":{"layer":"road","name":"","osm_id":428186465,"id":428186465,"basis":"OSM current centerline; width is design value"},"geometry":{"type":"LineString","coordinates":[[121.48791177,31.22879644],[121.48795579,31.22879168],[121.48801535,31.22880381],[121.48805076,31.22881351],[121.48806357,31.22885232]]}},{"type":"Feature","properties":{"layer":"road","name":"","osm_id":428186466,"id":428186466,"basis":"OSM current centerline; width is design value"},"geometry":{"type":"LineString","coordinates":[[121.48816621,31.22852237],[121.48817409,31.22848976]]}},{"type":"Feature","properties":{"layer":"road","name":"","osm_id":428196083,"id":428196083,"basis":"OSM current centerline; width is design value"},"geometry":{"type":"LineString","coordinates":[[121.48810675,31.22832761],[121.48816211,31.22833561],[121.48815423,31.22835977],[121.48821432,31.22837046],[121.48820529,31.22841331],[121.48819961,31.22843658],[121.48827,31.22844529],[121.4882951,31.22835349],[121.4883075,31.22830839],[121.48837673,31.22830264],[121.48838576,31.22825593],[121.48825981,31.22823464],[121.48823901,31.2283021],[121.48812009,31.22828297]]}},{"type":"Feature","properties":{"layer":"road","name":"","osm_id":428196102,"id":428196102,"basis":"OSM current centerline; width is design value"},"geometry":{"type":"LineString","coordinates":[[121.48828754,31.22850934],[121.48829689,31.2284691],[121.48827,31.22844529]]}},{"type":"Feature","properties":{"layer":"road","name":"","osm_id":428196115,"id":428196115,"basis":"OSM current centerline; width is design value"},"geometry":{"type":"LineString","coordinates":[[121.48823901,31.2283021],[121.48822861,31.22833947],[121.4882951,31.22835349]]}},{"type":"Feature","properties":{"layer":"road","name":"","osm_id":428196116,"id":428196116,"basis":"OSM current centerline; width is design value"},"geometry":{"type":"LineString","coordinates":[[121.48829689,31.2284691],[121.48830256,31.22844269],[121.48831485,31.22838708],[121.48833418,31.22839103],[121.48840341,31.2284046],[121.48841865,31.22833866],[121.48843903,31.22825018],[121.4884239,31.22820652],[121.48826002,31.22817301]]}},{"type":"Feature","properties":{"layer":"road","name":"豫园老街","osm_id":428199190,"id":428199190,"basis":"OSM current centerline; width is design value"},"geometry":{"type":"LineString","coordinates":[[121.48695454,31.22975584],[121.48696095,31.22959064],[121.48696957,31.2295053],[121.48703302,31.22928018],[121.48711212,31.22904321],[121.48713838,31.22897521],[121.48716486,31.22890658]]}},{"type":"Feature","properties":{"layer":"road","name":"黄金广场","osm_id":428199191,"id":428199191,"basis":"OSM current centerline; width is design value"},"geometry":{"type":"LineString","coordinates":[[121.48660598,31.22920131],[121.4866562,31.22921209],[121.48669832,31.22922107],[121.48696473,31.22929357],[121.48697408,31.22926437],[121.48698364,31.22923509],[121.48688605,31.22921128],[121.48693112,31.2290283],[121.48688836,31.22902318],[121.48685947,31.22901976],[121.486702,31.22899919],[121.486704,31.22897862],[121.48667353,31.22897557],[121.48663088,31.22897143],[121.48660598,31.22920131]]}},{"type":"Feature","properties":{"layer":"road","name":"","osm_id":428199193,"id":428199193,"basis":"OSM current centerline; width is design value"},"geometry":{"type":"LineString","coordinates":[[121.48676829,31.22875009],[121.48681146,31.22875701]]}},{"type":"Feature","properties":{"layer":"road","name":"","osm_id":428199194,"id":428199194,"basis":"OSM current centerline; width is design value"},"geometry":{"type":"LineString","coordinates":[[121.48623526,31.22888834],[121.48632171,31.2289019],[121.48667584,31.22895823]]}},{"type":"Feature","properties":{"layer":"road","name":"九曲桥广场","osm_id":428199195,"id":428199195,"basis":"OSM current centerline; width is design value"},"geometry":{"type":"LineString","coordinates":[[121.48707787,31.2283657],[121.48700728,31.22835492],[121.48701138,31.22832833],[121.48701883,31.22830147],[121.48703008,31.22825081],[121.48744282,31.22831791],[121.48743778,31.22832959],[121.4874299,31.22834828],[121.48741698,31.2283631],[121.4873966,31.22835914],[121.48736897,31.2284664],[121.48736803,31.22847134],[121.48716916,31.228439],[121.48715446,31.22848742],[121.48714805,31.22851464],[121.48714584,31.2285141],[121.48709678,31.22850323],[121.48705077,31.22849551],[121.48705539,31.22847332],[121.48707787,31.2283657]]}},{"type":"Feature","properties":{"layer":"road","name":"","osm_id":428199196,"id":428199196,"basis":"OSM current centerline; width is design value"},"geometry":{"type":"LineString","coordinates":[[121.48752403,31.22795257],[121.48757172,31.22796074],[121.48762645,31.22797009],[121.48764179,31.22790622],[121.48769022,31.22791466],[121.48768192,31.22794907],[121.48771438,31.22795481],[121.48775556,31.227962],[121.48776775,31.2279117],[121.48786439,31.22792858],[121.48793016,31.22794017],[121.48794098,31.22789858],[121.48792165,31.22789499],[121.48790305,31.22789193],[121.48775462,31.22786534],[121.48764967,31.22784657],[121.48761427,31.22784046],[121.48755365,31.22783067],[121.48754556,31.22786678],[121.48752403,31.22795257]]}},{"type":"Feature","properties":{"layer":"road","name":"","osm_id":428199197,"id":428199197,"basis":"OSM current centerline; width is design value"},"geometry":{"type":"LineString","coordinates":[[121.4874922,31.22827174],[121.48756363,31.22799209],[121.48757172,31.22796074]]}},{"type":"Feature","properties":{"layer":"road","name":"","osm_id":428199198,"id":428199198,"basis":"OSM current centerline; width is design value"},"geometry":{"type":"LineString","coordinates":[[121.48779769,31.22724569],[121.48776838,31.22736561]]}},{"type":"Feature","properties":{"layer":"road","name":"中心广场","osm_id":428199199,"id":428199199,"basis":"OSM current centerline; width is design value"},"geometry":{"type":"LineString","coordinates":[[121.48701253,31.22778054],[121.48754556,31.22786678],[121.48755365,31.22783067],[121.48761427,31.22784046],[121.48762383,31.22779716],[121.48756573,31.22778782],[121.4876025,31.22762163],[121.48720436,31.22755992],[121.48716591,31.22755318],[121.48713838,31.22754842],[121.48709815,31.22772961],[121.4870264,31.22771802],[121.48701989,31.22774731],[121.48701253,31.22778054]]}},{"type":"Feature","properties":{"layer":"road","name":"","osm_id":428199200,"id":428199200,"basis":"OSM current centerline; width is design value"},"geometry":{"type":"LineString","coordinates":[[121.48791587,31.22792023],[121.48792165,31.22789499],[121.4879769,31.22783094],[121.48805454,31.22765963]]}},{"type":"Feature","properties":{"layer":"road","name":"","osm_id":428202596,"id":428202596,"basis":"OSM current centerline; width is design value"},"geometry":{"type":"LineString","coordinates":[[121.48685821,31.22830731],[121.48687029,31.22824326],[121.48698553,31.22774281]]}},{"type":"Feature","properties":{"layer":"road","name":"","osm_id":428202598,"id":428202598,"basis":"OSM current centerline; width is design value"},"geometry":{"type":"LineString","coordinates":[[121.48728913,31.22778917],[121.48716591,31.22755318],[121.48722169,31.22730022],[121.4872428,31.2271961]]}},{"type":"Feature","properties":{"layer":"road","name":"四牌楼路","osm_id":444342365,"id":444342365,"basis":"OSM current centerline; width is design value"},"geometry":{"type":"LineString","coordinates":[[121.49098316,31.22417625],[121.49100491,31.22456648],[121.4910234,31.2248666],[121.49104294,31.22518209],[121.49101814,31.22535744],[121.49100564,31.22544601],[121.49099545,31.22551734],[121.4909882,31.22556872],[121.4909819,31.22561328],[121.49097266,31.22567831],[121.49095301,31.22581773],[121.49093767,31.22592571],[121.49086697,31.22642607],[121.49085395,31.22651788],[121.49087118,31.22684082],[121.49088798,31.22694026],[121.49090763,31.22711103],[121.49091635,31.22714696],[121.49096289,31.22738529]]}},{"type":"Feature","properties":{"layer":"road","name":"人民路","osm_id":446275072,"id":446275072,"basis":"OSM current centerline; width is design value"},"geometry":{"type":"LineString","coordinates":[[121.49032617,31.23111687],[121.49002457,31.23123464],[121.48960709,31.23136274]]}},{"type":"Feature","properties":{"layer":"road","name":"福佑路","osm_id":495101830,"id":495101830,"basis":"OSM current centerline; width is design value"},"geometry":{"type":"LineString","coordinates":[[121.48813858,31.22983193],[121.48834994,31.22980129],[121.48847422,31.22978117]]}},{"type":"Feature","properties":{"layer":"road","name":"安仁街","osm_id":495101845,"id":495101845,"basis":"OSM current centerline; width is design value"},"geometry":{"type":"LineString","coordinates":[[121.48813858,31.22983193],[121.48825865,31.22932654],[121.48829321,31.22916089],[121.48841234,31.22859064],[121.48843314,31.2284912],[121.48847758,31.22827839],[121.488503,31.22815658],[121.48852422,31.2280583],[121.48855069,31.22793532],[121.4885736,31.22782914],[121.48860207,31.22769718],[121.48867035,31.22738969]]}},{"type":"Feature","properties":{"layer":"road","name":"","osm_id":553893869,"id":553893869,"basis":"OSM current centerline; width is design value"},"geometry":{"type":"LineString","coordinates":[[121.48698553,31.22774281],[121.48701989,31.22774731],[121.48728913,31.22778917],[121.48755365,31.22783067],[121.48759651,31.22786337],[121.48764358,31.22787118],[121.48773098,31.22788771],[121.48791587,31.22792023]]}},{"type":"Feature","properties":{"layer":"road","name":"","osm_id":553893870,"id":553893870,"basis":"OSM current centerline; width is design value"},"geometry":{"type":"LineString","coordinates":[[121.48719007,31.22729824],[121.48722169,31.22730022],[121.48725972,31.22729923],[121.48720436,31.22755992],[121.48716591,31.22755318],[121.48713838,31.22754842],[121.48719007,31.22729824]]}},{"type":"Feature","properties":{"layer":"road","name":"","osm_id":553893876,"id":553893876,"basis":"OSM current centerline; width is design value"},"geometry":{"type":"LineString","coordinates":[[121.48713891,31.22834576],[121.4871055,31.2284806]]}},{"type":"Feature","properties":{"layer":"road","name":"","osm_id":553893877,"id":553893877,"basis":"OSM current centerline; width is design value"},"geometry":{"type":"LineString","coordinates":[[121.48715151,31.22848796],[121.4871055,31.2284806],[121.48705539,31.22847332]]}},{"type":"Feature","properties":{"layer":"road","name":"","osm_id":553893878,"id":553893878,"basis":"OSM current centerline; width is design value"},"geometry":{"type":"LineString","coordinates":[[121.48747644,31.22833372],[121.48743778,31.22832959],[121.48713891,31.22834576],[121.48701138,31.22832833],[121.48685821,31.22830731]]}},{"type":"Feature","properties":{"layer":"road","name":"","osm_id":553893880,"id":553893880,"basis":"OSM current centerline; width is design value"},"geometry":{"type":"LineString","coordinates":[[121.48745469,31.22826437],[121.4874922,31.22827174],[121.4875463,31.22828207],[121.48753548,31.22832474],[121.48775462,31.22836319],[121.48802586,31.22841259],[121.48801998,31.22842427],[121.48801619,31.22843712],[121.48799308,31.22844772],[121.48774054,31.2284028],[121.4874299,31.22834828],[121.48743778,31.22832959],[121.48744282,31.22831791],[121.48745469,31.22826437]]}},{"type":"Feature","properties":{"layer":"road","name":"","osm_id":553893883,"id":553893883,"basis":"OSM current centerline; width is design value"},"geometry":{"type":"LineString","coordinates":[[121.48625438,31.22926186],[121.48625952,31.22923527],[121.48626467,31.22920859],[121.48660262,31.22924569],[121.48660598,31.22920131],[121.4866562,31.22921209],[121.48669832,31.22922107],[121.48668435,31.22944278],[121.48666681,31.22974371],[121.48662206,31.22974308],[121.48657772,31.22974254],[121.48660304,31.22929536],[121.48625438,31.22926186]]}},{"type":"Feature","properties":{"layer":"road","name":"","osm_id":553893885,"id":553893885,"basis":"OSM current centerline; width is design value"},"geometry":{"type":"LineString","coordinates":[[121.48685821,31.22830731],[121.48645975,31.22824641],[121.48637949,31.2282323]]}},{"type":"Feature","properties":{"layer":"road","name":"","osm_id":553899386,"id":553899386,"basis":"OSM current centerline; width is design value"},"geometry":{"type":"LineString","coordinates":[[121.48771438,31.22795481],[121.48769915,31.22801662],[121.48761878,31.22800207],[121.48756363,31.22799209]]}},{"type":"Feature","properties":{"layer":"road","name":"","osm_id":554033955,"id":554033955,"basis":"OSM current centerline; width is design value"},"geometry":{"type":"LineString","coordinates":[[121.48657499,31.22770886],[121.48658077,31.22767921],[121.48658644,31.22765101],[121.4870264,31.22771802],[121.48701989,31.22774731],[121.48701253,31.22778054],[121.48694708,31.22806719],[121.48706653,31.2280866],[121.48704205,31.22819718],[121.48692839,31.22817867],[121.48690517,31.22828297],[121.48701883,31.22830147],[121.48701138,31.22832833],[121.48700728,31.22835492],[121.48689582,31.22833794],[121.48687313,31.22844673],[121.48686872,31.22846766],[121.48681146,31.22875701],[121.48680495,31.22879006],[121.48673394,31.22877937],[121.486704,31.22897862],[121.48667353,31.22897557],[121.48663088,31.22897143],[121.48631804,31.2289205],[121.48632171,31.2289019],[121.48632487,31.22888591],[121.48663771,31.22893541],[121.48667374,31.2286979],[121.48673761,31.22870796],[121.48681377,31.22833768],[121.48645345,31.22828072],[121.48645975,31.22824641],[121.48646532,31.22821667],[121.48681724,31.22827228],[121.48692702,31.22776464],[121.48657499,31.22770886]]}},{"type":"Feature","properties":{"layer":"road","name":"","osm_id":694630311,"id":694630311,"basis":"OSM current centerline; width is design value"},"geometry":{"type":"LineString","coordinates":[[121.49039309,31.22994538],[121.48996049,31.22993487],[121.48949112,31.22991098],[121.48924593,31.22997089],[121.48896113,31.22998877],[121.48892394,31.23003458]]}},{"type":"Feature","properties":{"layer":"road","name":"安仁街","osm_id":694630316,"id":694630316,"basis":"OSM current centerline; width is design value"},"geometry":{"type":"LineString","coordinates":[[121.48802449,31.2310892],[121.48802218,31.23092697],[121.48802932,31.23068388],[121.48811074,31.23004959],[121.48813858,31.22983193]]}},{"type":"Feature","properties":{"layer":"road","name":"积玉水廊","osm_id":760475690,"id":760475690,"basis":"OSM current centerline; width is design value"},"geometry":{"type":"LineString","coordinates":[[121.48816316,31.22853548],[121.48815423,31.22856854]]}},{"type":"Feature","properties":{"layer":"road","name":"积玉水廊","osm_id":760475691,"id":760475691,"basis":"OSM current centerline; width is design value"},"geometry":{"type":"LineString","coordinates":[[121.48816621,31.22852237],[121.48816316,31.22853548]]}},{"type":"Feature","properties":{"layer":"road","name":"","osm_id":760475692,"id":760475692,"basis":"OSM current centerline; width is design value"},"geometry":{"type":"LineString","coordinates":[[121.48687313,31.22844673],[121.4868331,31.22844089]]}},{"type":"Feature","properties":{"layer":"road","name":"","osm_id":760475693,"id":760475693,"basis":"OSM current centerline; width is design value"},"geometry":{"type":"LineString","coordinates":[[121.48705539,31.22847332],[121.48687313,31.22844673]]}},{"type":"Feature","properties":{"layer":"road","name":"","osm_id":760475719,"id":760475719,"basis":"OSM current centerline; width is design value"},"geometry":{"type":"LineString","coordinates":[[121.48812082,31.22737684],[121.48814047,31.2272871]]}},{"type":"Feature","properties":{"layer":"road","name":"","osm_id":760475720,"id":760475720,"basis":"OSM current centerline; width is design value"},"geometry":{"type":"LineString","coordinates":[[121.48810391,31.22744898],[121.48812082,31.22737684]]}},{"type":"Feature","properties":{"layer":"road","name":"","osm_id":760475721,"id":760475721,"basis":"OSM current centerline; width is design value"},"geometry":{"type":"LineString","coordinates":[[121.48807723,31.22756279],[121.48810391,31.22744898]]}},{"type":"Feature","properties":{"layer":"road","name":"","osm_id":760475722,"id":760475722,"basis":"OSM current centerline; width is design value"},"geometry":{"type":"LineString","coordinates":[[121.48805454,31.22765963],[121.48807723,31.22756279]]}},{"type":"Feature","properties":{"layer":"road","name":"","osm_id":760475724,"id":760475724,"basis":"OSM current centerline; width is design value"},"geometry":{"type":"LineString","coordinates":[[121.48764967,31.22784657],[121.48764358,31.22787118]]}},{"type":"Feature","properties":{"layer":"road","name":"","osm_id":760475725,"id":760475725,"basis":"OSM current centerline; width is design value"},"geometry":{"type":"LineString","coordinates":[[121.48776838,31.22736561],[121.48764967,31.22784657]]}},{"type":"Feature","properties":{"layer":"road","name":"","osm_id":760475726,"id":760475726,"basis":"OSM current centerline; width is design value"},"geometry":{"type":"LineString","coordinates":[[121.48681146,31.22875701],[121.48690065,31.22877129]]}},{"type":"Feature","properties":{"layer":"road","name":"","osm_id":760475727,"id":760475727,"basis":"OSM current centerline; width is design value"},"geometry":{"type":"LineString","coordinates":[[121.48703302,31.22928018],[121.48697408,31.22926437]]}},{"type":"Feature","properties":{"layer":"road","name":"豫园老街","osm_id":760475728,"id":760475728,"basis":"OSM current centerline; width is design value"},"geometry":{"type":"LineString","coordinates":[[121.48695433,31.22982842],[121.48695454,31.22975584]]}},{"type":"Feature","properties":{"layer":"road","name":"","osm_id":760475729,"id":760475729,"basis":"OSM current centerline; width is design value"},"geometry":{"type":"LineString","coordinates":[[121.48722253,31.22888573],[121.48725888,31.22887253],[121.48738095,31.22891376],[121.48748232,31.22894664],[121.487592,31.22897808]]}},{"type":"Feature","properties":{"layer":"road","name":"","osm_id":760475730,"id":760475730,"basis":"OSM current centerline; width is design value"},"geometry":{"type":"LineString","coordinates":[[121.48709678,31.22850323],[121.4871055,31.2284806]]}},{"type":"Feature","properties":{"layer":"road","name":"","osm_id":760475731,"id":760475731,"basis":"OSM current centerline; width is design value"},"geometry":{"type":"LineString","coordinates":[[121.48697408,31.22926437],[121.48686798,31.22923338],[121.48675684,31.22912199],[121.48688836,31.22902318]]}},{"type":"Feature","properties":{"layer":"road","name":"","osm_id":760475732,"id":760475732,"basis":"OSM current centerline; width is design value"},"geometry":{"type":"LineString","coordinates":[[121.48773098,31.22788771],[121.48771438,31.22795481]]}},{"type":"Feature","properties":{"layer":"road","name":"","osm_id":760475733,"id":760475733,"basis":"OSM current centerline; width is design value"},"geometry":{"type":"LineString","coordinates":[[121.48757172,31.22796074],[121.48759651,31.22786337]]}},{"type":"Feature","properties":{"layer":"road","name":"","osm_id":760475734,"id":760475734,"basis":"OSM current centerline; width is design value"},"geometry":{"type":"LineString","coordinates":[[121.48747644,31.22833372],[121.4874922,31.22827174]]}},{"type":"Feature","properties":{"layer":"road","name":"","osm_id":761403178,"id":761403178,"basis":"OSM current centerline; width is design value"},"geometry":{"type":"LineString","coordinates":[[121.48748159,31.22936921],[121.48753926,31.22937783],[121.48755901,31.22929411],[121.48768633,31.22931612],[121.48767625,31.2293587]]}},{"type":"Feature","properties":{"layer":"road","name":"","osm_id":761403179,"id":761403179,"basis":"OSM current centerline; width is design value"},"geometry":{"type":"LineString","coordinates":[[121.48748337,31.22930848],[121.48748159,31.22936921]]}},{"type":"Feature","properties":{"layer":"road","name":"","osm_id":761403180,"id":761403180,"basis":"OSM current centerline; width is design value"},"geometry":{"type":"LineString","coordinates":[[121.48759095,31.22973194],[121.48759221,31.22971317]]}},{"type":"Feature","properties":{"layer":"road","name":"中华路","osm_id":999502007,"id":999502007,"basis":"OSM current centerline; width is design value"},"geometry":{"type":"LineString","coordinates":[[121.49303807,31.22695697],[121.49316245,31.2267385],[121.49323862,31.22661112],[121.49335396,31.22638394],[121.49355902,31.22600638],[121.4939017,31.22540693],[121.49402818,31.22508291],[121.49412588,31.22480884],[121.49438777,31.22419574],[121.4943966,31.22417625]]}},{"type":"Feature","properties":{"layer":"road","name":"河南南路","osm_id":1064398307,"id":1064398307,"basis":"OSM current centerline; width is design value"},"geometry":{"type":"LineString","coordinates":[[121.48275931,31.2309982],[121.48271887,31.2312147],[121.4826884,31.23136274]]}},{"type":"Feature","properties":{"layer":"road","name":"人民路","osm_id":1064398308,"id":1064398308,"basis":"OSM current centerline; width is design value"},"geometry":{"type":"LineString","coordinates":[[121.4829919,31.23085331],[121.48354699,31.23100808],[121.48472315,31.23123976],[121.48536816,31.23131773],[121.48599931,31.23135672],[121.48601622,31.23136274]]}},{"type":"Feature","properties":{"layer":"road","name":"河南南路","osm_id":1085107696,"id":1085107696,"basis":"OSM current centerline; width is design value"},"geometry":{"type":"LineString","coordinates":[[121.48280407,31.23078836],[121.48275931,31.2309982]]}},{"type":"Feature","properties":{"layer":"road","name":"人民路","osm_id":1085107731,"id":1085107731,"basis":"OSM current centerline; width is design value"},"geometry":{"type":"LineString","coordinates":[[121.48391425,31.23136274],[121.48380332,31.2313366],[121.48328405,31.23120796],[121.48300513,31.23112738],[121.48275931,31.2309982]]}},{"type":"Feature","properties":{"layer":"road","name":"河南南路","osm_id":1085107737,"id":1085107737,"basis":"OSM current centerline; width is design value"},"geometry":{"type":"LineString","coordinates":[[121.48493955,31.22459262],[121.48509282,31.22430704],[121.48516321,31.22417625]]}},{"type":"Feature","properties":{"layer":"road","name":"人民路","osm_id":1085107741,"id":1085107741,"basis":"OSM current centerline; width is design value"},"geometry":{"type":"LineString","coordinates":[[121.48266834,31.23074138],[121.48280407,31.23078836]]}},{"type":"Feature","properties":{"layer":"road","name":"河南南路","osm_id":1085107742,"id":1085107742,"basis":"OSM current centerline; width is design value"},"geometry":{"type":"LineString","coordinates":[[121.48266834,31.23074138],[121.48270941,31.23051689],[121.48285165,31.22989454],[121.48288306,31.22970401]]}},{"type":"Feature","properties":{"layer":"road","name":"人民路","osm_id":1123874585,"id":1123874585,"basis":"OSM current centerline; width is design value"},"geometry":{"type":"LineString","coordinates":[[121.48280407,31.23078836],[121.4829919,31.23085331]]}},{"type":"Feature","properties":{"layer":"road","name":"河南南路","osm_id":1223689722,"id":1223689722,"basis":"OSM current centerline; width is design value"},"geometry":{"type":"LineString","coordinates":[[121.48402928,31.22632142],[121.48424527,31.22588169],[121.48449088,31.2254841],[121.48493955,31.22459262]]}},{"type":"Feature","properties":{"layer":"road","name":"河南南路","osm_id":1223689723,"id":1223689723,"basis":"OSM current centerline; width is design value"},"geometry":{"type":"LineString","coordinates":[[121.48337155,31.22764041],[121.48341736,31.22753656]]}},{"type":"Feature","properties":{"layer":"road","name":"河南南路","osm_id":1223689725,"id":1223689725,"basis":"OSM current centerline; width is design value"},"geometry":{"type":"LineString","coordinates":[[121.4835451,31.22756513],[121.48330989,31.22830291],[121.48321492,31.22870778],[121.48310042,31.22922107],[121.48308014,31.22931117],[121.48300356,31.22972404],[121.48284367,31.23054501],[121.48280407,31.23078836]]}},{"type":"Feature","properties":{"layer":"road","name":"河南南路","osm_id":1223689726,"id":1223689726,"basis":"OSM current centerline; width is design value"},"geometry":{"type":"LineString","coordinates":[[121.48367652,31.2273048],[121.4835451,31.22756513]]}},{"type":"Feature","properties":{"layer":"road","name":"河南南路","osm_id":1223689727,"id":1223689727,"basis":"OSM current centerline; width is design value"},"geometry":{"type":"LineString","coordinates":[[121.48374039,31.22718694],[121.48367652,31.2273048]]}},{"type":"Feature","properties":{"layer":"road","name":"中华路","osm_id":1234889326,"id":1234889326,"basis":"OSM current centerline; width is design value"},"geometry":{"type":"LineString","coordinates":[[121.49281725,31.22730776],[121.49296863,31.2270654],[121.49303807,31.22695697]]}},{"type":"Feature","properties":{"layer":"road","name":"人民路","osm_id":1273405488,"id":1273405488,"basis":"OSM current centerline; width is design value"},"geometry":{"type":"LineString","coordinates":[[121.48275931,31.2309982],[121.48261781,31.23096838]]}},{"type":"Feature","properties":{"layer":"road","name":"河南南路","osm_id":1273405489,"id":1273405489,"basis":"OSM current centerline; width is design value"},"geometry":{"type":"LineString","coordinates":[[121.48261781,31.23096838],[121.48266834,31.23074138]]}},{"type":"Feature","properties":{"layer":"road","name":"河南南路","osm_id":1297720370,"id":1297720370,"basis":"OSM current centerline; width is design value"},"geometry":{"type":"LineString","coordinates":[[121.48341736,31.22753656],[121.48374123,31.22685609],[121.48402928,31.22632142]]}},{"type":"Feature","properties":{"layer":"road","name":"中山东二路","osm_id":1298040467,"id":1298040467,"basis":"OSM current centerline; width is design value"},"geometry":{"type":"LineString","coordinates":[[121.49564293,31.22761076],[121.49554155,31.22782357],[121.49536486,31.22804438],[121.49512345,31.22830803],[121.49505769,31.22837612],[121.49483844,31.22860286],[121.4946379,31.22879752],[121.49430898,31.22908184]]}},{"type":"Feature","properties":{"layer":"road","name":"中山东二路","osm_id":1298040468,"id":1298040468,"basis":"OSM current centerline; width is design value"},"geometry":{"type":"LineString","coordinates":[[121.49411306,31.22890361],[121.49422978,31.22879339],[121.49441383,31.22861948],[121.49477583,31.22824362],[121.49500968,31.22798976],[121.49530487,31.22763627],[121.49542411,31.22747449]]}},{"type":"Feature","properties":{"layer":"road","name":"河南南路","osm_id":1298040488,"id":1298040488,"basis":"OSM current centerline; width is design value"},"geometry":{"type":"LineString","coordinates":[[121.4841731,31.2263366],[121.48383777,31.22696604],[121.48374039,31.22718694]]}},{"type":"Feature","properties":{"layer":"road","name":"东门路","osm_id":1326193808,"id":1326193808,"basis":"OSM current centerline; width is design value"},"geometry":{"type":"LineString","coordinates":[[121.49564293,31.22761076],[121.49542411,31.22747449]]}},{"type":"Feature","properties":{"layer":"road","name":"河南南路","osm_id":1327579141,"id":1327579141,"basis":"OSM current centerline; width is design value"},"geometry":{"type":"LineString","coordinates":[[121.48253555,31.23136274],[121.48256886,31.2311899],[121.48261781,31.23096838]]}},{"type":"Feature","properties":{"layer":"road","name":"河南南路","osm_id":1332905238,"id":1332905238,"basis":"OSM current centerline; width is design value"},"geometry":{"type":"LineString","coordinates":[[121.48311502,31.22855498],[121.48317374,31.22827138],[121.48337155,31.22764041]]}},{"type":"Feature","properties":{"layer":"road","name":"方浜中路","osm_id":33683346,"id":33683346,"basis":"OSM snapshot 2019-01-01; used to restore missing contemporary road segments, not a 1990s survey"},"geometry":{"type":"LineString","coordinates":[[121.48059588,31.22431414],[121.48073823,31.22440792],[121.48084307,31.22452812],[121.48112534,31.22476042],[121.48141602,31.22491942],[121.48158768,31.22499596],[121.48174651,31.22506692],[121.48196765,31.22513852],[121.48211346,31.22521191],[121.48219078,31.22532204],[121.48219078,31.2254541],[121.48217439,31.2255592],[121.48215642,31.22567427],[121.48224225,31.22579896],[121.48232587,31.22585169],[121.4824512,31.22593074],[121.48256035,31.22601617],[121.48276015,31.22617292],[121.48305199,31.22634908],[121.48335243,31.22642984],[121.48370425,31.22640783],[121.48402928,31.22632142]]}},{"type":"Feature","properties":{"layer":"road","name":"方浜中路","osm_id":238219462,"id":238219462,"basis":"OSM snapshot 2019-01-01; used to restore missing contemporary road segments, not a 1990s survey"},"geometry":{"type":"LineString","coordinates":[[121.48779769,31.22724569],[121.48733325,31.22720392],[121.4872428,31.2271961],[121.48674171,31.22715289],[121.48663855,31.227144],[121.48650692,31.2271201],[121.48630984,31.22708444],[121.48628158,31.22707932],[121.48611812,31.22703081],[121.485342,31.22676464],[121.48467388,31.22652372],[121.48437732,31.22640163],[121.4841731,31.2263366],[121.48402928,31.22632142]]}},{"type":"Feature","properties":{"layer":"road","name":"方浜中路","osm_id":238219464,"id":238219464,"basis":"OSM snapshot 2019-01-01; used to restore missing contemporary road segments, not a 1990s survey"},"geometry":{"type":"LineString","coordinates":[[121.48968966,31.2276943],[121.48983064,31.22770742],[121.48999137,31.22769646],[121.49007814,31.22768829],[121.49017405,31.22764984],[121.49035695,31.22755866],[121.49051694,31.22748302],[121.49064794,31.22744817],[121.49096289,31.22738529],[121.49130462,31.22732097],[121.49146944,31.22729006],[121.49164845,31.22726644],[121.49186055,31.22722664],[121.49211604,31.22722979],[121.49246302,31.22727884],[121.49280391,31.22730668]]}},{"type":"Feature","properties":{"layer":"road","name":"方浜中路","osm_id":238219466,"id":238219466,"basis":"OSM snapshot 2019-01-01; used to restore missing contemporary road segments, not a 1990s survey"},"geometry":{"type":"LineString","coordinates":[[121.48968966,31.2276943],[121.48963399,31.2276793],[121.48956245,31.2276564],[121.48867035,31.22738969],[121.48852076,31.22735268],[121.48833923,31.22731576],[121.48814047,31.2272871],[121.48779769,31.22724569]]}},{"type":"Feature","properties":{"layer":"road","name":"通江步道（示意）","osm_id":null,"id":"design-river-link","basis":"design connection to mapped shoreline; not a historical surveyed pedestrian route"},"geometry":{"type":"LineString","coordinates":[[121.49564293,31.22761076],[121.49636285,31.22835636]]}},{"type":"Feature","properties":{"layer":"landmark","name":"老城隍庙","basis":"anchor","note":"区域定位锚点；建筑外观按1990—2000年资料进一步复核。"},"geometry":{"type":"Point","coordinates":[121.48812987,31.22786675]}},{"type":"Feature","properties":{"layer":"landmark","name":"豫园","basis":"anchor","note":"园林与庙市相邻；当前为院落与水面概略。"},"geometry":{"type":"Point","coordinates":[121.48781096,31.22888908]}},{"type":"Feature","properties":{"layer":"landmark","name":"玄扈台","basis":"anchor","note":"1999年建设的戏台；属于所选年代范围，当前采用简化地标。"},"geometry":{"type":"Point","coordinates":[121.48978705,31.22764454]}},{"type":"Feature","properties":{"layer":"landmark","name":"猫猫墙 · 指定保留","basis":"proposal","note":"猫墙来自2023年艺术季，按机主要求纳入90年代世界。已加入金棕大猫墙绘样点；墙段位置为示意，遮挡处补绘为推定，其余猫墙图案待细化。"},"geometry":{"type":"Point","coordinates":[121.49052241,31.22778827]}},{"type":"Feature","properties":{"layer":"landmark","name":"江岸 · 通江联系","basis":"proposal","note":"由明确道路端点接向开放地图江岸；最后步道是设计示意，码头和90年代岸线细节待考。"},"geometry":{"type":"Point","coordinates":[121.49636285,31.22835636]}},{"type":"Feature","properties":{"layer":"landmark","name":"会馆公所院落 · 拟设","basis":"proposal","note":"按机主指定的会馆公所文化线索预留院落样点。具体公所名称、历史店址和造型待考。"},"geometry":{"type":"Point","coordinates":[121.49141618,31.22669152]}},{"type":"Feature","properties":{"layer":"landmark","name":"协大祥","basis":"proposal","note":"历史商号文化展示位置，非已核实的1990—2000年原址。"},"geometry":{"type":"Point","coordinates":[121.48574183,31.22681953]}},{"type":"Feature","properties":{"layer":"landmark","name":"宝大祥","basis":"proposal","note":"历史商号文化展示位置，非已核实的1990—2000年原址。"},"geometry":{"type":"Point","coordinates":[121.48646374,31.22703423]}},{"type":"Feature","properties":{"layer":"landmark","name":"信大祥","basis":"proposal","note":"历史商号文化展示位置，非已核实的1990—2000年原址。"},"geometry":{"type":"Point","coordinates":[121.48718902,31.22711471]}},{"type":"Feature","properties":{"layer":"landmark","name":"童涵春","basis":"proposal","note":"历史商号文化展示位置，非已核实的1990—2000年原址。"},"geometry":{"type":"Point","coordinates":[121.49251723,31.22735995]}}],"attribution":"© OpenStreetMap contributors, ODbL","note":"Geographic reference plus explicitly proposed historical scene anchors; not a 1990s cadastral reconstruction"}
